{
  "type": "FeatureCollection",
  "features": [
    {
      "type": "Feature",
      "geometry": {
        "type": "Point",
        "coordinates": [
          -120.73908943446597,
          35.33021295266383
        ]
      },
      "properties": {
        "tree_id": 2,
        "common_name": "Giant Yucca",
        "scientific_name": "Yucca gigantea",
        "family": "Asparagaceae",
        "origin": "Mexico, C America",
        "photo_url": "https://inaturalist-open-data.s3.amazonaws.com/photos/63924844/medium.jpeg"
      }
    },
    {
      "type": "Feature",
      "geometry": {
        "type": "Point",
        "coordinates": [
          -120.74299179066861,
          35.32879959599673
        ]
      },
      "properties": {
        "tree_id": 3,
        "common_name": "Chinese Pistache",
        "scientific_name": "Pistacia chinensis",
        "family": "Anacardiaceae",
        "origin": "China",
        "photo_url": "https://inaturalist-open-data.s3.amazonaws.com/photos/171142/medium.jpg"
      }
    },
    {
      "type": "Feature",
      "geometry": {
        "type": "Point",
        "coordinates": [
          -120.742331913569,
          35.329905725697316
        ]
      },
      "properties": {
        "tree_id": 7,
        "common_name": "California Pepper Tree",
        "scientific_name": "Schinus molle",
        "family": "Anacardiaceae",
        "origin": "South America",
        "photo_url": "https://inaturalist-open-data.s3.amazonaws.com/photos/382465760/medium.jpeg"
      }
    },
    {
      "type": "Feature",
      "geometry": {
        "type": "Point",
        "coordinates": [
          -120.7404651330936,
          35.32924264286116
        ]
      },
      "properties": {
        "tree_id": 8,
        "common_name": "Brazilian Pepper Tree",
        "scientific_name": "Schinus terebinthifolia",
        "family": "Anacardiaceae",
        "origin": "South America",
        "photo_url": "https://inaturalist-open-data.s3.amazonaws.com/photos/57240422/medium.jpg"
      }
    },
    {
      "type": "Feature",
      "geometry": {
        "type": "Point",
        "coordinates": [
          -120.7415082835067,
          35.32939460310605
        ]
      },
      "properties": {
        "tree_id": 9,
        "common_name": "Norfolk Island Pine",
        "scientific_name": "Araucaria heterophylla",
        "family": "Araucariaceae",
        "origin": "Norfolk Island",
        "photo_url": "https://inaturalist-open-data.s3.amazonaws.com/photos/250438081/medium.jpg"
      }
    },
    {
      "type": "Feature",
      "geometry": {
        "type": "Point",
        "coordinates": [
          -120.74177020377272,
          35.33074575513708
        ]
      },
      "properties": {
        "tree_id": 10,
        "common_name": "Canary Island Palm",
        "scientific_name": "Phoenix canariensis",
        "family": "Arecaceae",
        "origin": "Canary Islands",
        "photo_url": "https://inaturalist-open-data.s3.amazonaws.com/photos/431136790/medium.jpeg"
      }
    },
    {
      "type": "Feature",
      "geometry": {
        "type": "Point",
        "coordinates": [
          -120.74118367117693,
          35.3301056850632
        ]
      },
      "properties": {
        "tree_id": 11,
        "common_name": "Senegal Date Palm",
        "scientific_name": "Phoenix reclinata",
        "family": "Arecaceae",
        "origin": "Africa",
        "photo_url": "https://inaturalist-open-data.s3.amazonaws.com/photos/12342659/medium.jpg"
      }
    },
    {
      "type": "Feature",
      "geometry": {
        "type": "Point",
        "coordinates": [
          -120.73955538911756,
          35.32902386867386
        ]
      },
      "properties": {
        "tree_id": 13,
        "common_name": "Chinese Windmill Palm",
        "scientific_name": "Trachycarpus fortunei",
        "family": "Arecaceae",
        "origin": "Central China",
        "photo_url": "https://inaturalist-open-data.s3.amazonaws.com/photos/418335608/medium.jpeg"
      }
    },
    {
      "type": "Feature",
      "geometry": {
        "type": "Point",
        "coordinates": [
          -120.741179057715,
          35.3300695105813
        ]
      },
      "properties": {
        "tree_id": 14,
        "common_name": "Mexican Fan Palm",
        "scientific_name": "Washingtonia robusta",
        "family": "Arecaceae",
        "origin": "California, Mexico",
        "photo_url": "https://inaturalist-open-data.s3.amazonaws.com/photos/249270666/medium.jpeg"
      }
    },
    {
      "type": "Feature",
      "geometry": {
        "type": "Point",
        "coordinates": [
          -120.74176797376586,
          35.33023134627865
        ]
      },
      "properties": {
        "tree_id": 17,
        "common_name": "Jacaranda",
        "scientific_name": "Jacaranda mimosifolia",
        "family": "Bignoniaceae",
        "origin": "Argentina, Bolivia",
        "photo_url": "https://static.inaturalist.org/photos/251075969/medium.jpg"
      }
    },
    {
      "type": "Feature",
      "geometry": {
        "type": "Point",
        "coordinates": [
          -120.74118770555096,
          35.331355312276145
        ]
      },
      "properties": {
        "tree_id": 18,
        "common_name": "Horsetail Tree",
        "scientific_name": "Casuarina cunninghamiana",
        "family": "Casuarinaceae",
        "origin": "Australia",
        "photo_url": "https://inaturalist-open-data.s3.amazonaws.com/photos/57118907/medium.jpeg"
      }
    },
    {
      "type": "Feature",
      "geometry": {
        "type": "Point",
        "coordinates": [
          -120.7410227323684,
          35.32822625125444
        ]
      },
      "properties": {
        "tree_id": 19,
        "common_name": "Incense Cedar",
        "scientific_name": "Calocedrus decurrens",
        "family": "Cupressaceae ",
        "origin": "California",
        "photo_url": "https://inaturalist-open-data.s3.amazonaws.com/photos/52181671/medium.jpg"
      }
    },
    {
      "type": "Feature",
      "geometry": {
        "type": "Point",
        "coordinates": [
          -120.7376565402288,
          35.325578209537866
        ]
      },
      "properties": {
        "tree_id": 24,
        "common_name": "Japanese Persimmon",
        "scientific_name": "Diospyros kaki",
        "family": "Ebenaceae",
        "origin": "China",
        "photo_url": "https://static.inaturalist.org/photos/171386353/medium.jpeg"
      }
    },
    {
      "type": "Feature",
      "geometry": {
        "type": "Point",
        "coordinates": [
          -120.7412413515696,
          35.330199114441896
        ]
      },
      "properties": {
        "tree_id": 26,
        "common_name": "Strawberry Tree",
        "scientific_name": "Arbutus unedo",
        "family": "Ericaceae",
        "origin": "S Europe",
        "photo_url": "https://inaturalist-open-data.s3.amazonaws.com/photos/587076789/medium.jpg"
      }
    },
    {
      "type": "Feature",
      "geometry": {
        "type": "Point",
        "coordinates": [
          -120.74182989417884,
          35.330515827062854
        ]
      },
      "properties": {
        "tree_id": 27,
        "common_name": "Acacia Tree",
        "scientific_name": "Acacia baileyana",
        "family": "Fabaceae",
        "origin": "Australia",
        "photo_url": "https://inaturalist-open-data.s3.amazonaws.com/photos/224675585/medium.jpg"
      }
    },
    {
      "type": "Feature",
      "geometry": {
        "type": "Point",
        "coordinates": [
          -120.74071377079603,
          35.32829201747222
        ]
      },
      "properties": {
        "tree_id": 28,
        "common_name": "Sydney Golden Wattle",
        "scientific_name": "Acacia longifolia",
        "family": "Fabaceae",
        "origin": "Australia",
        "photo_url": "https://inaturalist-open-data.s3.amazonaws.com/photos/52176937/medium.jpeg"
      }
    },
    {
      "type": "Feature",
      "geometry": {
        "type": "Point",
        "coordinates": [
          -120.73919672438679,
          35.328826995476604
        ]
      },
      "properties": {
        "tree_id": 30,
        "common_name": "Western Redbud",
        "scientific_name": "Cercis occidentalis",
        "family": "Fabaceae",
        "origin": "California",
        "photo_url": "https://inaturalist-open-data.s3.amazonaws.com/photos/450999973/medium.jpeg"
      }
    },
    {
      "type": "Feature",
      "geometry": {
        "type": "Point",
        "coordinates": [
          -120.74301485292814,
          35.32906997765116
        ]
      },
      "properties": {
        "tree_id": 31,
        "common_name": "Coast Live Oak",
        "scientific_name": "Quercus agrifolia",
        "family": "Fagaceae",
        "origin": "California",
        "photo_url": "https://inaturalist-open-data.s3.amazonaws.com/photos/18734105/medium.jpg"
      }
    },
    {
      "type": "Feature",
      "geometry": {
        "type": "Point",
        "coordinates": [
          -120.7428179908423,
          35.32898256543159
        ]
      },
      "properties": {
        "tree_id": 32,
        "common_name": "Valley Oak",
        "scientific_name": "Quercus lobata",
        "family": "Fagaceae",
        "origin": "California",
        "photo_url": "https://inaturalist-open-data.s3.amazonaws.com/photos/88494137/medium.jpeg"
      }
    },
    {
      "type": "Feature",
      "geometry": {
        "type": "Point",
        "coordinates": [
          -120.73823882406792,
          35.32645905024365
        ]
      },
      "properties": {
        "tree_id": 33,
        "common_name": "Cork Oak",
        "scientific_name": "Quercus suber",
        "family": "Fagaceae",
        "origin": "Mediterranean",
        "photo_url": "https://inaturalist-open-data.s3.amazonaws.com/photos/159050222/medium.jpeg"
      }
    },
    {
      "type": "Feature",
      "geometry": {
        "type": "Point",
        "coordinates": [
          -120.737682330066,
          35.3257515621112
        ]
      },
      "properties": {
        "tree_id": 35,
        "common_name": "Coast Silktassel",
        "scientific_name": "Garrya elliptica",
        "family": "Garryaceae",
        "origin": "CA, OR coast",
        "photo_url": "https://inaturalist-open-data.s3.amazonaws.com/photos/348744523/medium.jpg"
      }
    },
    {
      "type": "Feature",
      "geometry": {
        "type": "Point",
        "coordinates": [
          -120.74301512045,
          35.328974287335
        ]
      },
      "properties": {
        "tree_id": 36,
        "common_name": "Ginkgo",
        "scientific_name": "Ginkgo biloba",
        "family": "Ginkgoaceae",
        "origin": "SE China",
        "photo_url": "https://inaturalist-open-data.s3.amazonaws.com/photos/397250612/medium.jpeg"
      }
    },
    {
      "type": "Feature",
      "geometry": {
        "type": "Point",
        "coordinates": [
          -120.74555662338824,
          35.328192982937395
        ]
      },
      "properties": {
        "tree_id": 39,
        "common_name": "California Black Walnut",
        "scientific_name": "Juglans californica",
        "family": "Juglandaceae",
        "origin": "California",
        "photo_url": "https://inaturalist-open-data.s3.amazonaws.com/photos/7086/medium.jpg"
      }
    },
    {
      "type": "Feature",
      "geometry": {
        "type": "Point",
        "coordinates": [
          -120.7406366507495,
          35.330400699202045
        ]
      },
      "properties": {
        "tree_id": 42,
        "common_name": "Southern Magnolia",
        "scientific_name": "Magnolia grandiflora",
        "family": "Magnoliaceae",
        "origin": "S USA",
        "photo_url": "https://inaturalist-open-data.s3.amazonaws.com/photos/82254330/medium.jpg"
      }
    },
    {
      "type": "Feature",
      "geometry": {
        "type": "Point",
        "coordinates": [
          -120.74175853688884,
          35.33058339630065
        ]
      },
      "properties": {
        "tree_id": 43,
        "common_name": "Saucer Magnolia",
        "scientific_name": "Magnolia \u00d7soulangeana",
        "family": "Magnoliaceae",
        "origin": "bred in France",
        "photo_url": null
      }
    },
    {
      "type": "Feature",
      "geometry": {
        "type": "Point",
        "coordinates": [
          -120.74371867789314,
          35.32990462253187
        ]
      },
      "properties": {
        "tree_id": 44,
        "common_name": "Australian Flame Tree",
        "scientific_name": "Brachychiton acerifolius",
        "family": "Malvaceae",
        "origin": "Australia",
        "photo_url": "https://inaturalist-open-data.s3.amazonaws.com/photos/761699/medium.JPG"
      }
    },
    {
      "type": "Feature",
      "geometry": {
        "type": "Point",
        "coordinates": [
          -120.74480602424303,
          35.32950177165868
        ]
      },
      "properties": {
        "tree_id": 45,
        "common_name": "Kurrajong",
        "scientific_name": "Brachychiton populneus",
        "family": "Malvaceae",
        "origin": "E Australia",
        "photo_url": "https://inaturalist-open-data.s3.amazonaws.com/photos/58113928/medium.jpg"
      }
    },
    {
      "type": "Feature",
      "geometry": {
        "type": "Point",
        "coordinates": [
          -120.74502876034715,
          35.3289548413371
        ]
      },
      "properties": {
        "tree_id": 46,
        "common_name": "Queensland Bottle Tree",
        "scientific_name": "Brachychiton rupestris",
        "family": "Malvaceae",
        "origin": "Australia",
        "photo_url": "https://inaturalist-open-data.s3.amazonaws.com/photos/52329647/medium.jpeg"
      }
    },
    {
      "type": "Feature",
      "geometry": {
        "type": "Point",
        "coordinates": [
          -120.73766138333336,
          35.32563955
        ]
      },
      "properties": {
        "tree_id": 47,
        "common_name": "Common Fig",
        "scientific_name": "Ficus carica",
        "family": "Moraceae",
        "origin": "Middle East, W Asia",
        "photo_url": "https://static.inaturalist.org/photos/97971657/medium.jpeg"
      }
    },
    {
      "type": "Feature",
      "geometry": {
        "type": "Point",
        "coordinates": [
          -120.74152080911205,
          35.33027140094573
        ]
      },
      "properties": {
        "tree_id": 48,
        "common_name": "Willow Peppermint",
        "scientific_name": "Agonis flexuosa",
        "family": "Myrtaceae",
        "origin": "Australia",
        "photo_url": "https://static.inaturalist.org/photos/25628874/medium.jpg"
      }
    },
    {
      "type": "Feature",
      "geometry": {
        "type": "Point",
        "coordinates": [
          -120.73754458333332,
          35.32569856666667
        ]
      },
      "properties": {
        "tree_id": 49,
        "common_name": "Weeping Bottlebrush",
        "scientific_name": "Callistemon viminalis",
        "family": "Myrtaceae",
        "origin": "NE Australia",
        "photo_url": "https://inaturalist-open-data.s3.amazonaws.com/photos/192336/medium.jpg"
      }
    },
    {
      "type": "Feature",
      "geometry": {
        "type": "Point",
        "coordinates": [
          -120.74284008716388,
          35.32844488036787
        ]
      },
      "properties": {
        "tree_id": 50,
        "common_name": "Red-Flowering Gum",
        "scientific_name": "Corymbia ficifolia",
        "family": "Myrtaceae",
        "origin": "Australia",
        "photo_url": "https://inaturalist-open-data.s3.amazonaws.com/photos/15394901/medium.jpg"
      }
    },
    {
      "type": "Feature",
      "geometry": {
        "type": "Point",
        "coordinates": [
          -120.74240799603471,
          35.330236519893276
        ]
      },
      "properties": {
        "tree_id": 51,
        "common_name": "Tasmanian Blue Gum",
        "scientific_name": "Eucalyptus globulus",
        "family": "Myrtaceae",
        "origin": "Australia",
        "photo_url": "https://static.inaturalist.org/photos/30675602/medium.jpg"
      }
    },
    {
      "type": "Feature",
      "geometry": {
        "type": "Point",
        "coordinates": [
          -120.74037882897682,
          35.33018933617549
        ]
      },
      "properties": {
        "tree_id": 52,
        "common_name": "Flooded Gum",
        "scientific_name": "Eucalyptus grandis",
        "family": "Myrtaceae",
        "origin": "Australia",
        "photo_url": "https://inaturalist-open-data.s3.amazonaws.com/photos/70464623/medium.jpg"
      }
    },
    {
      "type": "Feature",
      "geometry": {
        "type": "Point",
        "coordinates": [
          -120.74025610167234,
          35.33025366985224
        ]
      },
      "properties": {
        "tree_id": 53,
        "common_name": "White Ironbark",
        "scientific_name": "Eucalyptus leucoxylon",
        "family": "Myrtaceae",
        "origin": "Australia",
        "photo_url": "https://inaturalist-open-data.s3.amazonaws.com/photos/73988808/medium.jpeg"
      }
    },
    {
      "type": "Feature",
      "geometry": {
        "type": "Point",
        "coordinates": [
          -120.73898160501729,
          35.3292659770147
        ]
      },
      "properties": {
        "tree_id": 54,
        "common_name": "Red Spotted Gum",
        "scientific_name": "Eucalyptus mannifera",
        "family": "Myrtaceae",
        "origin": "Australia",
        "photo_url": "https://inaturalist-open-data.s3.amazonaws.com/photos/331814958/medium.jpeg"
      }
    },
    {
      "type": "Feature",
      "geometry": {
        "type": "Point",
        "coordinates": [
          -120.7424489236356,
          35.32886901044251
        ]
      },
      "properties": {
        "tree_id": 55,
        "common_name": "Yellow Box",
        "scientific_name": "Eucalyptus melliodora",
        "family": "Myrtaceae",
        "origin": "Australia",
        "photo_url": "https://inaturalist-open-data.s3.amazonaws.com/photos/95333941/medium.jpeg"
      }
    },
    {
      "type": "Feature",
      "geometry": {
        "type": "Point",
        "coordinates": [
          -120.74161164710246,
          35.32754762460489
        ]
      },
      "properties": {
        "tree_id": 56,
        "common_name": "Narrow-leafed Peppermint",
        "scientific_name": "Eucalyptus nicholii",
        "family": "Myrtaceae",
        "origin": "Australia",
        "photo_url": "https://inaturalist-open-data.s3.amazonaws.com/photos/352904123/medium.jpeg"
      }
    },
    {
      "type": "Feature",
      "geometry": {
        "type": "Point",
        "coordinates": [
          -120.74246841732302,
          35.328904507559514
        ]
      },
      "properties": {
        "tree_id": 57,
        "common_name": "Silver Dollar Gum",
        "scientific_name": "Eucalyptus polyanthemos",
        "family": "Myrtaceae",
        "origin": "Australia",
        "photo_url": "https://inaturalist-open-data.s3.amazonaws.com/photos/150097925/medium.jpeg"
      }
    },
    {
      "type": "Feature",
      "geometry": {
        "type": "Point",
        "coordinates": [
          -120.74041746658582,
          35.32911255143169
        ]
      },
      "properties": {
        "tree_id": 58,
        "common_name": "Swamp Mahogany",
        "scientific_name": "Eucalyptus robusta",
        "family": "Myrtaceae",
        "origin": "Australia",
        "photo_url": "https://static.inaturalist.org/photos/169915850/medium.jpg"
      }
    },
    {
      "type": "Feature",
      "geometry": {
        "type": "Point",
        "coordinates": [
          -120.74090112033817,
          35.33070995318565
        ]
      },
      "properties": {
        "tree_id": 59,
        "common_name": "Desert Gum",
        "scientific_name": "Eucalyptus rudis",
        "family": "Myrtaceae",
        "origin": "Australia",
        "photo_url": "https://inaturalist-open-data.s3.amazonaws.com/photos/133990980/medium.jpg"
      }
    },
    {
      "type": "Feature",
      "geometry": {
        "type": "Point",
        "coordinates": [
          -120.74217846249148,
          35.32905858216026
        ]
      },
      "properties": {
        "tree_id": 60,
        "common_name": "Sydney Blue Gum",
        "scientific_name": "Eucalyptus saligna",
        "family": "Myrtaceae",
        "origin": "Australia",
        "photo_url": "https://inaturalist-open-data.s3.amazonaws.com/photos/70314522/medium.jpg"
      }
    },
    {
      "type": "Feature",
      "geometry": {
        "type": "Point",
        "coordinates": [
          -120.74136281985288,
          35.327892065163276
        ]
      },
      "properties": {
        "tree_id": 61,
        "common_name": "Red Ironbark",
        "scientific_name": "Eucalyptus sideroxylon",
        "family": "Myrtaceae",
        "origin": "Australia",
        "photo_url": "https://static.inaturalist.org/photos/142847321/medium.jpeg"
      }
    },
    {
      "type": "Feature",
      "geometry": {
        "type": "Point",
        "coordinates": [
          -120.74038733076986,
          35.329019382962144
        ]
      },
      "properties": {
        "tree_id": 62,
        "common_name": "Swamp Mallee",
        "scientific_name": "Eucalyptus spathulata",
        "family": "Myrtaceae",
        "origin": "Australia",
        "photo_url": "https://inaturalist-open-data.s3.amazonaws.com/photos/341167029/medium.jpeg"
      }
    },
    {
      "type": "Feature",
      "geometry": {
        "type": "Point",
        "coordinates": [
          -120.74287676072106,
          35.330015822579355
        ]
      },
      "properties": {
        "tree_id": 64,
        "common_name": "Manna Gum",
        "scientific_name": "Eucalyptus viminalis",
        "family": "Myrtaceae",
        "origin": "Australia",
        "photo_url": "https://inaturalist-open-data.s3.amazonaws.com/photos/21705753/medium.jpeg"
      }
    },
    {
      "type": "Feature",
      "geometry": {
        "type": "Point",
        "coordinates": [
          -120.74502139449258,
          35.329162049771476
        ]
      },
      "properties": {
        "tree_id": 66,
        "common_name": "Pineapple Guava",
        "scientific_name": "Feijoa sellowiana",
        "family": "Myrtaceae",
        "origin": "South America",
        "photo_url": "https://inaturalist-open-data.s3.amazonaws.com/photos/148368813/medium.jpeg"
      }
    },
    {
      "type": "Feature",
      "geometry": {
        "type": "Point",
        "coordinates": [
          -120.74092194916649,
          35.32959065059004
        ]
      },
      "properties": {
        "tree_id": 69,
        "common_name": "Pink Melaleuca",
        "scientific_name": "Melaleuca nesophila",
        "family": "Myrtaceae",
        "origin": "Australia",
        "photo_url": null
      }
    },
    {
      "type": "Feature",
      "geometry": {
        "type": "Point",
        "coordinates": [
          -120.7409607877002,
          35.32943350819808
        ]
      },
      "properties": {
        "tree_id": 70,
        "common_name": "Prickly Paperbark",
        "scientific_name": "Melaleuca quinquenervia",
        "family": "Myrtaceae",
        "origin": "Australia",
        "photo_url": "https://inaturalist-open-data.s3.amazonaws.com/photos/68697633/medium.jpeg"
      }
    },
    {
      "type": "Feature",
      "geometry": {
        "type": "Point",
        "coordinates": [
          -120.74216507742032,
          35.32994501431379
        ]
      },
      "properties": {
        "tree_id": 71,
        "common_name": "Tomlinson Ash",
        "scientific_name": "Fraxinus uhdei",
        "family": "Oleaceae",
        "origin": "Mexico",
        "photo_url": "https://inaturalist-open-data.s3.amazonaws.com/photos/10688128/medium.jpg"
      }
    },
    {
      "type": "Feature",
      "geometry": {
        "type": "Point",
        "coordinates": [
          -120.74246369892262,
          35.329523816235024
        ]
      },
      "properties": {
        "tree_id": 72,
        "common_name": "Mission Olive",
        "scientific_name": "Olea europaea",
        "family": "Oleaceae",
        "origin": "Mediterranean, Asia",
        "photo_url": "https://inaturalist-open-data.s3.amazonaws.com/photos/87194494/medium.jpg"
      }
    },
    {
      "type": "Feature",
      "geometry": {
        "type": "Point",
        "coordinates": [
          -120.74259656443266,
          35.33102655004289
        ]
      },
      "properties": {
        "tree_id": 73,
        "common_name": "Atlas Cedar",
        "scientific_name": "Cedrus atlantica",
        "family": "Pinaceae",
        "origin": "Morocco, Algeria",
        "photo_url": "https://static.inaturalist.org/photos/13985521/medium.jpg"
      }
    },
    {
      "type": "Feature",
      "geometry": {
        "type": "Point",
        "coordinates": [
          -120.74357016393093,
          35.32998296480599
        ]
      },
      "properties": {
        "tree_id": 75,
        "common_name": "Bishop Pine",
        "scientific_name": "Pinus muricata",
        "family": "Pinaceae ",
        "origin": "California ",
        "photo_url": "https://inaturalist-open-data.s3.amazonaws.com/photos/174607076/medium.jpeg"
      }
    },
    {
      "type": "Feature",
      "geometry": {
        "type": "Point",
        "coordinates": [
          -120.74425657294856,
          35.330376169177626
        ]
      },
      "properties": {
        "tree_id": 76,
        "common_name": "Italian Stone Pine",
        "scientific_name": "Pinus pinea",
        "family": "Pinaceae",
        "origin": "Mediterranean",
        "photo_url": "https://static.inaturalist.org/photos/2052389/medium.jpg"
      }
    },
    {
      "type": "Feature",
      "geometry": {
        "type": "Point",
        "coordinates": [
          -120.74128245979936,
          35.328381130925266
        ]
      },
      "properties": {
        "tree_id": 77,
        "common_name": "Monterey Pine",
        "scientific_name": "Pinus radiata",
        "family": "Pinaceae ",
        "origin": "California ",
        "photo_url": "https://inaturalist-open-data.s3.amazonaws.com/photos/168316058/medium.jpg"
      }
    },
    {
      "type": "Feature",
      "geometry": {
        "type": "Point",
        "coordinates": [
          -120.74197523082448,
          35.33059287986741
        ]
      },
      "properties": {
        "tree_id": 79,
        "common_name": "Torrey Pine",
        "scientific_name": "Pinus torreyana",
        "family": "Pinaceae",
        "origin": "S California",
        "photo_url": "https://inaturalist-open-data.s3.amazonaws.com/photos/546706374/medium.jpg"
      }
    },
    {
      "type": "Feature",
      "geometry": {
        "type": "Point",
        "coordinates": [
          -120.74322327005473,
          35.32864839927868
        ]
      },
      "properties": {
        "tree_id": 81,
        "common_name": "Western Sycamore",
        "scientific_name": "Platanus racemosa",
        "family": "Platanaceae",
        "origin": "California",
        "photo_url": "https://inaturalist-open-data.s3.amazonaws.com/photos/38512081/medium.jpg"
      }
    },
    {
      "type": "Feature",
      "geometry": {
        "type": "Point",
        "coordinates": [
          -120.73994361307791,
          35.326923092493814
        ]
      },
      "properties": {
        "tree_id": 82,
        "common_name": "Yew Tree",
        "scientific_name": "Podocarpus macrophyllus",
        "family": "Podocarpaceae",
        "origin": "China, Japan",
        "photo_url": "https://static.inaturalist.org/photos/91052089/medium.jpeg"
      }
    },
    {
      "type": "Feature",
      "geometry": {
        "type": "Point",
        "coordinates": [
          -120.74075168934525,
          35.330535627156934
        ]
      },
      "properties": {
        "tree_id": 83,
        "common_name": "Silk Oak",
        "scientific_name": "Grevillea robusta",
        "family": "Proteaceae",
        "origin": "E Australia",
        "photo_url": "https://static.inaturalist.org/photos/251288010/medium.jpeg"
      }
    },
    {
      "type": "Feature",
      "geometry": {
        "type": "Point",
        "coordinates": [
          -120.74422996327314,
          35.32884537424598
        ]
      },
      "properties": {
        "tree_id": 85,
        "common_name": "Loquat",
        "scientific_name": "Rhaphiolepis bibas",
        "family": "Rosaceae",
        "origin": "China",
        "photo_url": "https://inaturalist-open-data.s3.amazonaws.com/photos/317638914/medium.jpg"
      }
    },
    {
      "type": "Feature",
      "geometry": {
        "type": "Point",
        "coordinates": [
          -120.74465786554596,
          35.329696024176926
        ]
      },
      "properties": {
        "tree_id": 87,
        "common_name": "Catalina Ironwood",
        "scientific_name": "Lyonothamnus floribundus",
        "family": "Rosaceae",
        "origin": "Catalina Island",
        "photo_url": "https://inaturalist-open-data.s3.amazonaws.com/photos/40743676/medium.jpg"
      }
    },
    {
      "type": "Feature",
      "geometry": {
        "type": "Point",
        "coordinates": [
          -120.74215774010955,
          35.32875533005914
        ]
      },
      "properties": {
        "tree_id": 89,
        "common_name": "Red Flowering Plum",
        "scientific_name": "Prunus cerasifera",
        "family": "Rosaceae",
        "origin": "Mediterranean",
        "photo_url": "https://static.inaturalist.org/photos/62295627/medium.jpg"
      }
    },
    {
      "type": "Feature",
      "geometry": {
        "type": "Point",
        "coordinates": [
          -120.74161495748984,
          35.33016630331018
        ]
      },
      "properties": {
        "tree_id": 90,
        "common_name": "Ornamental Pear ",
        "scientific_name": "Pyrus calleryana",
        "family": "Rosaceae",
        "origin": "China, Taiwan",
        "photo_url": "https://inaturalist-open-data.s3.amazonaws.com/photos/269351075/medium.jpg"
      }
    },
    {
      "type": "Feature",
      "geometry": {
        "type": "Point",
        "coordinates": [
          -120.73885825752292,
          35.33064122942939
        ]
      },
      "properties": {
        "tree_id": 95,
        "common_name": "Carrotwood Tree",
        "scientific_name": "Cupaniopsis anacardioides",
        "family": "Sapindaceae",
        "origin": "NE Australia",
        "photo_url": "https://inaturalist-open-data.s3.amazonaws.com/photos/1330673/medium.jpg"
      }
    },
    {
      "type": "Feature",
      "geometry": {
        "type": "Point",
        "coordinates": [
          -120.74310618052922,
          35.32851785151246
        ]
      },
      "properties": {
        "tree_id": 96,
        "common_name": "Chinese Flame Tree",
        "scientific_name": "Koelreuteria bipinnata",
        "family": "Sapindaceae",
        "origin": "SW China",
        "photo_url": "https://inaturalist-open-data.s3.amazonaws.com/photos/236143455/medium.jpg"
      }
    },
    {
      "type": "Feature",
      "geometry": {
        "type": "Point",
        "coordinates": [
          -120.74164534927766,
          35.33053157463239
        ]
      },
      "properties": {
        "tree_id": 100,
        "common_name": "English Elm",
        "scientific_name": "Ulmus procera",
        "family": "Ulmaceae",
        "origin": "Europe, W Asia",
        "photo_url": "https://inaturalist-open-data.s3.amazonaws.com/photos/419559493/medium.jpg"
      }
    }
  ]
}
